0 COSMOS 1275 DEB
1 12650U 81053E   13281.85787091  .00000452  00000-0  43636-3 0   123
2 12650 082.9348 089.4663 0063034 229.6322 240.8145 13.77046338612946
0 COSMOS 1275 DEB
1 12650U 81053E   13284.17111063  .00000493  00000-0  47688-3 0   138
2 12650 082.9349 087.7446 0063182 223.1207 188.4383 13.77049345613260
0 COSMOS 1275 DEB
1 12650U 81053E   13286.49782334  .00000441  00000-0  42541-3 0   147
2 12650 082.9353 086.0128 0063349 216.6126 202.8325 13.77051690613584
0 COSMOS 1275 DEB
1 12650U 81053E   13288.83320663  .00000552  00000-0  53616-3 0   159
2 12650 082.9359 084.2748 0063497 210.0965 260.2157 13.77054281613907
0 COSMOS 1275 DEB
1 12650U 81053E   13291.08645883  .00000522  00000-0  50616-3 0   169
2 12650 082.9364 082.5982 0063640 203.8207 270.4528 13.77056565614210
0 COSMOS 1275 DEB
1 12650U 81053E   13293.10853686  .00000613  00000-0  59608-3 0   178
2 12650 082.9365 081.0936 0063773 198.2031 214.6742 13.77058541614497
0 COSMOS 1275 DEB
1 12650U 81053E   13295.15698212  .00000708  00000-0  69079-3 0   186
2 12650 082.9365 079.5693 0063906 192.5182 289.6200 13.77061682614773
